CCSDS_OMM_VERS = 2.0
CREATION_DATE  = 
ORIGINATOR     = 

OBJECT_NAME    = SL-16 R/B
OBJECT_ID      = 1993-016B
CENTER_NAME    = EARTH
REF_FRAME      = TEME
TIME_SYSTEM    = UTC
MEAN_ELEMENT_THEORY = SGP/SGP4

EPOCH          = 2026-01-17T06:08:48.018048
MEAN_MOTION    = 14.15293380
ECCENTRICITY   = .00088101
INCLINATION    = 71.0088
RA_OF_ASC_NODE = 323.2086
ARG_OF_PERICENTER = 30.4153
MEAN_ANOMALY   = 329.7479

EPHEMERIS_TYPE = 0
CLASSIFICATION_TYPE = U
NORAD_CAT_ID   = 22566
ELEMENT_SET_NO = 999
REV_AT_EPOCH   = 69489
BSTAR          = -.3295371E-5
MEAN_MOTION_DOT = -.54E-6
MEAN_MOTION_DDOT = 0

CCSDS_OMM_VERS = 2.0
CREATION_DATE  = 
ORIGINATOR     = 

OBJECT_NAME    = COSMOS 2242
OBJECT_ID      = 1993-024A
CENTER_NAME    = EARTH
REF_FRAME      = TEME
TIME_SYSTEM    = UTC
MEAN_ELEMENT_THEORY = SGP/SGP4

EPOCH          = 2026-01-17T06:45:48.339072
MEAN_MOTION    = 14.96281932
ECCENTRICITY   = .00178482
INCLINATION    = 82.5211
RA_OF_ASC_NODE = 315.8723
ARG_OF_PERICENTER = 114.9630
MEAN_ANOMALY   = 245.3449

EPHEMERIS_TYPE = 0
CLASSIFICATION_TYPE = U
NORAD_CAT_ID   = 22626
ELEMENT_SET_NO = 999
REV_AT_EPOCH   = 77270
BSTAR          = .1532622E-3
MEAN_MOTION_DOT = .1762E-4
MEAN_MOTION_DDOT = 0

CCSDS_OMM_VERS = 2.0
CREATION_DATE  = 
ORIGINATOR     = 

OBJECT_NAME    = SL-16 R/B
OBJECT_ID      = 1993-059B
CENTER_NAME    = EARTH
REF_FRAME      = TEME
TIME_SYSTEM    = UTC
MEAN_ELEMENT_THEORY = SGP/SGP4

EPOCH          = 2026-01-17T07:19:44.317920
MEAN_MOTION    = 14.17222111
ECCENTRICITY   = .00194423
INCLINATION    = 70.9910
RA_OF_ASC_NODE = 119.4893
ARG_OF_PERICENTER = 286.3813
MEAN_ANOMALY   = 73.5173

EPHEMERIS_TYPE = 0
CLASSIFICATION_TYPE = U
NORAD_CAT_ID   = 22803
ELEMENT_SET_NO = 999
REV_AT_EPOCH   = 67225
BSTAR          = .11979699E-3
MEAN_MOTION_DOT = .194E-5
MEAN_MOTION_DDOT = 0

CCSDS_OMM_VERS = 2.0
CREATION_DATE  = 
ORIGINATOR     = 

OBJECT_NAME    = ARIANE 40 R/B
OBJECT_ID      = 1993-061H
CENTER_NAME    = EARTH
REF_FRAME      = TEME
TIME_SYSTEM    = UTC
MEAN_ELEMENT_THEORY = SGP/SGP4

EPOCH          = 2026-01-17T03:54:57.541536
MEAN_MOTION    = 14.32826627
ECCENTRICITY   = .00117672
INCLINATION    = 98.5022
RA_OF_ASC_NODE = 87.0400
ARG_OF_PERICENTER = 78.8787
MEAN_ANOMALY   = 281.3720

EPHEMERIS_TYPE = 0
CLASSIFICATION_TYPE = U
NORAD_CAT_ID   = 22830
ELEMENT_SET_NO = 999
REV_AT_EPOCH   = 68672
BSTAR          = .78781593E-4
MEAN_MOTION_DOT = .172E-5
MEAN_MOTION_DDOT = 0

CCSDS_OMM_VERS = 2.0
CREATION_DATE  = 
ORIGINATOR     = 

OBJECT_NAME    = COSMOS 2278
OBJECT_ID      = 1994-023A
CENTER_NAME    = EARTH
REF_FRAME      = TEME
TIME_SYSTEM    = UTC
MEAN_ELEMENT_THEORY = SGP/SGP4

EPOCH          = 2026-01-17T04:20:59.734752
MEAN_MOTION    = 14.14365067
ECCENTRICITY   = .00065692
INCLINATION    = 71.0547
RA_OF_ASC_NODE = 282.8621
ARG_OF_PERICENTER = 113.1697
MEAN_ANOMALY   = 247.0118

EPHEMERIS_TYPE = 0
CLASSIFICATION_TYPE = U
NORAD_CAT_ID   = 23087
ELEMENT_SET_NO = 999
REV_AT_EPOCH   = 63752
BSTAR          = .77691612E-4
MEAN_MOTION_DOT = .102E-5
MEAN_MOTION_DDOT = 0

CCSDS_OMM_VERS = 2.0
CREATION_DATE  = 
ORIGINATOR     = 

OBJECT_NAME    = SL-16 R/B
OBJECT_ID      = 1994-023B
CENTER_NAME    = EARTH
REF_FRAME      = TEME
TIME_SYSTEM    = UTC
MEAN_ELEMENT_THEORY = SGP/SGP4

EPOCH          = 2026-01-16T21:32:35.359008
MEAN_MOTION    = 14.15006319
ECCENTRICITY   = .00035028
INCLINATION    = 70.9996
RA_OF_ASC_NODE = 179.6534
ARG_OF_PERICENTER = 336.8563
MEAN_ANOMALY   = 23.2402

EPHEMERIS_TYPE = 0
CLASSIFICATION_TYPE = U
NORAD_CAT_ID   = 23088
ELEMENT_SET_NO = 999
REV_AT_EPOCH   = 63876
BSTAR          = .86899799E-4
MEAN_MOTION_DOT = .121E-5
MEAN_MOTION_DDOT = 0

CCSDS_OMM_VERS = 2.0
CREATION_DATE  = 
ORIGINATOR     = 

OBJECT_NAME    = SL-16 R/B
OBJECT_ID      = 1994-074B
CENTER_NAME    = EARTH
REF_FRAME      = TEME
TIME_SYSTEM    = UTC
MEAN_ELEMENT_THEORY = SGP/SGP4

EPOCH          = 2026-01-17T02:51:59.727456
MEAN_MOTION    = 14.79335436
ECCENTRICITY   = .00074293
INCLINATION    = 97.7169
RA_OF_ASC_NODE = 50.0122
ARG_OF_PERICENTER = 39.4331
MEAN_ANOMALY   = 27.3688

EPHEMERIS_TYPE = 0
CLASSIFICATION_TYPE = U
NORAD_CAT_ID   = 23343
ELEMENT_SET_NO = 999
REV_AT_EPOCH   = 67962
BSTAR          = .61059063E-4
MEAN_MOTION_DOT = .405E-5
MEAN_MOTION_DDOT = 0

CCSDS_OMM_VERS = 2.0
CREATION_DATE  = 
ORIGINATOR     = 

OBJECT_NAME    = SL-16 R/B
OBJECT_ID      = 1994-077B
CENTER_NAME    = EARTH
REF_FRAME      = TEME
TIME_SYSTEM    = UTC
MEAN_ELEMENT_THEORY = SGP/SGP4

EPOCH          = 2026-01-17T04:22:15.505824
MEAN_MOTION    = 14.15556373
ECCENTRICITY   = .00048049
INCLINATION    = 70.9836
RA_OF_ASC_NODE = 100.8540
ARG_OF_PERICENTER = 256.5484
MEAN_ANOMALY   = 103.5103

EPHEMERIS_TYPE = 0
CLASSIFICATION_TYPE = U
NORAD_CAT_ID   = 23405
ELEMENT_SET_NO = 999
REV_AT_EPOCH   = 60894
BSTAR          = .13005007E-3
MEAN_MOTION_DOT = .207E-5
MEAN_MOTION_DDOT = 0

CCSDS_OMM_VERS = 2.0
CREATION_DATE  = 
ORIGINATOR     = 

OBJECT_NAME    = ARIANE 40+ R/B
OBJECT_ID      = 1995-021B
CENTER_NAME    = EARTH
REF_FRAME      = TEME
TIME_SYSTEM    = UTC
MEAN_ELEMENT_THEORY = SGP/SGP4

EPOCH          = 2026-01-17T04:18:33.194304
MEAN_MOTION    = 14.39725834
ECCENTRICITY   = .00057276
INCLINATION    = 98.4600
RA_OF_ASC_NODE = 89.3331
ARG_OF_PERICENTER = 300.4024
MEAN_ANOMALY   = 114.0171

EPHEMERIS_TYPE = 0
CLASSIFICATION_TYPE = U
NORAD_CAT_ID   = 23561
ELEMENT_SET_NO = 999
REV_AT_EPOCH   = 61183
BSTAR          = .96242306E-4
MEAN_MOTION_DOT = .258E-5
MEAN_MOTION_DDOT = 0

CCSDS_OMM_VERS = 2.0
CREATION_DATE  = 
ORIGINATOR     = 

OBJECT_NAME    = SL-16 R/B
OBJECT_ID      = 1995-058B
CENTER_NAME    = EARTH
REF_FRAME      = TEME
TIME_SYSTEM    = UTC
MEAN_ELEMENT_THEORY = SGP/SGP4

EPOCH          = 2026-01-17T04:28:38.075520
MEAN_MOTION    = 14.15490088
ECCENTRICITY   = .00135576
INCLINATION    = 71.0225
RA_OF_ASC_NODE = 288.3852
ARG_OF_PERICENTER = 208.2481
MEAN_ANOMALY   = 151.7909

EPHEMERIS_TYPE = 0
CLASSIFICATION_TYPE = U
NORAD_CAT_ID   = 23705
ELEMENT_SET_NO = 999
REV_AT_EPOCH   = 56056
BSTAR          = -.31868419E-4
MEAN_MOTION_DOT = -.11E-5
MEAN_MOTION_DDOT = 0

CCSDS_OMM_VERS = 2.0
CREATION_DATE  = 
ORIGINATOR     = 

OBJECT_NAME    = SL-16 R/B
OBJECT_ID      = 1996-051B
CENTER_NAME    = EARTH
REF_FRAME      = TEME
TIME_SYSTEM    = UTC
MEAN_ELEMENT_THEORY = SGP/SGP4

EPOCH          = 2026-01-17T04:23:26.206080
MEAN_MOTION    = 14.12401206
ECCENTRICITY   = .001891
INCLINATION    = 70.7591
RA_OF_ASC_NODE = 284.2624
ARG_OF_PERICENTER = 217.6721
MEAN_ANOMALY   = 142.3076

EPHEMERIS_TYPE = 0
CLASSIFICATION_TYPE = U
NORAD_CAT_ID   = 24298
ELEMENT_SET_NO = 999
REV_AT_EPOCH   = 51437
BSTAR          = .42404801E-4
MEAN_MOTION_DOT = .29E-6
MEAN_MOTION_DDOT = 0

CCSDS_OMM_VERS = 2.0
CREATION_DATE  = 
ORIGINATOR     = 

OBJECT_NAME    = ORBVIEW 2 (SEASTAR)
OBJECT_ID      = 1997-037A
CENTER_NAME    = EARTH
REF_FRAME      = TEME
TIME_SYSTEM    = UTC
MEAN_ELEMENT_THEORY = SGP/SGP4

EPOCH          = 2026-01-17T04:27:58.279680
MEAN_MOTION    = 14.35446889
ECCENTRICITY   = .00019438
INCLINATION    = 98.8483
RA_OF_ASC_NODE = 180.1588
ARG_OF_PERICENTER = 186.7735
MEAN_ANOMALY   = 173.3424

EPHEMERIS_TYPE = 0
CLASSIFICATION_TYPE = U
NORAD_CAT_ID   = 24883
ELEMENT_SET_NO = 999
REV_AT_EPOCH   = 50108
BSTAR          = .10531216E-3
MEAN_MOTION_DOT = .256E-5
MEAN_MOTION_DDOT = 0

