SL-16 R/B               
1 22566U 93016B   26017.25611132 -.00000054  00000+0 -32954-5 0  9995
2 22566  71.0088 323.2086 0008810  30.4153 329.7479 14.15293380694897
COSMOS 2242             
1 22626U 93024A   26017.28180948  .00001762  00000+0  15326-3 0  9997
2 22626  82.5211 315.8723 0017848 114.9630 245.3449 14.96281932772709
SL-16 R/B               
1 22803U 93059B   26017.30537405  .00000194  00000+0  11980-3 0  9999
2 22803  70.9910 119.4893 0019442 286.3813  73.5173 14.17222111672259
ARIANE 40 R/B           
1 22830U 93061H   26017.16316599  .00000172  00000+0  78782-4 0  9995
2 22830  98.5022  87.0400 0011767  78.8787 281.3720 14.32826627686722
COSMOS 2278             
1 23087U 94023A   26017.18124693  .00000102  00000+0  77692-4 0  9995
2 23087  71.0547 282.8621 0006569 113.1697 247.0118 14.14365067637522
SL-16 R/B               
1 23088U 94023B   26016.89763147  .00000121  00000+0  86900-4 0  9999
2 23088  70.9996 179.6534 0003502 336.8563  23.2402 14.15006319638765
SL-16 R/B               
1 23343U 94074B   26017.11944129  .00000405  00000+0  61059-4 0  9999
2 23343  97.7169  50.0122 0007429  39.4331  27.3688 14.79335436679620
SL-16 R/B               
1 23405U 94077B   26017.18212391  .00000207  00000+0  13005-3 0  9994
2 23405  70.9836 100.8540 0004804 256.5484 103.5103 14.15556373608947
ARIANE 40+ R/B          
1 23561U 95021B   26017.17955086  .00000258  00000+0  96242-4 0  9992
2 23561  98.4600  89.3331 0005727 300.4024 114.0171 14.39725834611837
SL-16 R/B               
1 23705U 95058B   26017.18655180 -.00000110  00000+0 -31868-4 0  9997
2 23705  71.0225 288.3852 0013557 208.2481 151.7909 14.15490088560562
SL-16 R/B               
1 24298U 96051B   26017.18294220  .00000029  00000+0  42405-4 0  9999
2 24298  70.7591 284.2624 0018910 217.6721 142.3076 14.12401206514373
ORBVIEW 2 (SEASTAR)     
1 24883U 97037A   26017.18609120  .00000256  00000+0  10531-3 0  9999
2 24883  98.8483 180.1588 0001943 186.7735 173.3424 14.35446889501082
